{
    "links": {
        "self": "http://www.neowsapp.com/rest/v1/neo/3799706?api_key=iIulBulltgU6a56xZRHN4H3l9WmuAYTsLGpBGhQ2"
    },
    "id": "3799706",
    "neo_reference_id": "3799706",
    "name": "(2018 DN)",
    "designation": "2018 DN",
    "nasa_jpl_url": "http://ssd.jpl.nasa.gov/sbdb.cgi?sstr=3799706",
    "absolute_magnitude_h": 26.9,
    "estimated_diameter": {
        "kilometers": {
            "estimated_diameter_min": 0.0110803882,
            "estimated_diameter_max": 0.0247765013
        },
        "meters": {
            "estimated_diameter_min": 11.0803882126,
            "estimated_diameter_max": 24.7765012606
        },
        "miles": {
            "estimated_diameter_min": 0.0068850319,
            "estimated_diameter_max": 0.0153953994
        },
        "feet": {
            "estimated_diameter_min": 36.3529808636,
            "estimated_diameter_max": 81.2877363957
        }
    },
    "is_potentially_hazardous_asteroid": false,
    "close_approach_data": [
        {
            "close_approach_date": "2018-02-15",
            "close_approach_date_full": "2018-Feb-15 05:37",
            "epoch_date_close_approach": 1518673020000,
            "relative_velocity": {
                "kilometers_per_second": "10.1912514208",
                "kilometers_per_hour": "36688.5051147083",
                "miles_per_hour": "22796.8103030808"
            },
            "miss_distance": {
                "astronomical": "0.0163378866",
                "lunar": "6.3554378874",
                "kilometers": "2444113.035661542",
                "miles": "1518701.4172395996"
            },
            "orbiting_body": "Earth"
        }
    ],
    "orbital_data": {
        "orbit_id": "1",
        "orbit_determination_date": "2018-02-22 18:42:03",
        "first_observation_date": "2018-02-21",
        "last_observation_date": "2018-02-22",
        "data_arc_in_days": 1,
        "observations_used": 26,
        "orbit_uncertainty": "8",
        "minimum_orbit_intersection": ".00656315",
        "jupiter_tisserand_invariant": "3.629",
        "epoch_osculation": "2458171.5",
        "eccentricity": ".5402838820103937",
        "semi_major_axis": "2.013249015127538",
        "inclination": "4.214829810707473",
        "ascending_node_longitude": "328.3549436086262",
        "orbital_period": "1043.385194467164",
        "perihelion_distance": ".9255230217808301",
        "perihelion_argument": "139.7899959831001",
        "aphelion_distance": "3.100975008474247",
        "perihelion_time": "2458136.139622011445",
        "mean_anomaly": "12.20041854473565",
        "mean_motion": ".3450307728238801",
        "equinox": "J2000",
        "orbit_class": {
            "orbit_class_type": "APO",
            "orbit_class_description": "Near-Earth asteroid orbits which cross the Earth’s orbit similar to that of 1862 Apollo",
            "orbit_class_range": "a (semi-major axis) > 1.0 AU; q (perihelion) < 1.017 AU"
        }
    },
    "is_sentry_object": false
}